NORAD_CAT_ID,OBJECT_NAME,OBJECT_TYPE,EPOCH,MEAN_MOTION,ECCENTRICITY,INCLINATION,RA_OF_ASC_NODE,ARG_OF_PERICENTER,MEAN_ANOMALY,BSTAR,MEAN_MOTION_DOT,MEAN_MOTION_DDOT,TLE_LINE0,TLE_LINE1,TLE_LINE2,SEMIMAJOR_AXIS,PERIOD,APOGEE,PERIGEE,DECAYED
51732.0,STARLINK-3518,PAYLOAD,2024-03-21 14:53:55,15.08850898,0.0001121,53.2157,302.6527,109.0482,251.0632,-0.00021529,-3.714e-05,0.0,0 STARLINK-3518,1 51732U 22016U   24081.62078621 -.00003714  00000-0 -21529-3 0  9995,2 51732  53.2157 302.6527 0001121 109.0482 251.0632 15.08850898116309,6917.847,95.437,540.488,538.937,0.0
51732.0,STARLINK-3518,PAYLOAD,2024-03-21 21:15:28,15.08856658,0.000141,53.2167,301.4695,69.1383,290.976,0.00022294,3.264e-05,0.0,0 STARLINK-3518,1 51732U 22016U   24081.88574485  .00003264  00000-0  22294-3 0  9990,2 51732  53.2167 301.4695 0001410  69.1383 290.9760 15.08856658116348,6917.829,95.437,540.67,538.719,0.0
51732.0,STARLINK-3518,PAYLOAD,2024-03-22 21:06:15,15.08845546,0.0001416,53.2171,297.0073,86.5567,273.5587,0.00018297,2.626e-05,0.0,0 STARLINK-3518,1 51732U 22016U   24082.87934663  .00002626  00000-0  18297-3 0  9997,2 51732  53.2171 297.0073 0001416  86.5567 273.5587 15.08845546116490,6917.863,95.437,540.708,538.749,0.0
51732.0,STARLINK-3518,PAYLOAD,2024-03-23 20:57:02,15.08838893,0.0001295,53.2164,292.5475,92.3667,267.7473,-5.7609e-05,-1.205e-05,0.0,0 STARLINK-3518,1 51732U 22016U   24083.87295037 -.00001205  00000-0 -57609-4 0  9998,2 51732  53.2164 292.5475 0001295  92.3667 267.7473 15.08838893116642,6917.884,95.438,540.645,538.853,0.0
51732.0,STARLINK-3518,PAYLOAD,2024-03-24 12:50:54,15.08835674,0.0001517,53.2159,289.5729,95.2102,264.9063,3.2536e-06,-2.36e-06,0.0,0 STARLINK-3518,1 51732U 22016U   24084.53535346 -.00000236  00000-0  32536-5 0  9997,2 51732  53.2159 289.5729 0001517  95.2102 264.9063 15.08835674116746,6917.894,95.438,540.808,538.709,0.0
51732.0,STARLINK-3518,PAYLOAD,2024-03-24 20:47:50,15.08849549,0.0001008,53.2149,288.0852,82.3024,277.8083,0.00040348,6.141e-05,0.0,0 STARLINK-3518,1 51732U 22016U   24084.86655152  .00006141  00000-0  40348-3 0  9999,2 51732  53.2149 288.0852 0001008  82.3024 277.8083 15.08849549116797,6917.851,95.437,540.414,539.019,0.0
51732.0,STARLINK-3518,PAYLOAD,2024-03-25 12:41:42,15.0883896,0.0001318,53.2153,285.1121,90.4802,269.6341,0.00028552,4.259e-05,0.0,0 STARLINK-3518,1 51732U 22016U   24085.52895862  .00004259  00000-0  28552-3 0  9998,2 51732  53.2153 285.1121 0001318  90.4802 269.6341 15.08838960116899,6917.884,95.438,540.66,538.837,0.0
51732.0,STARLINK-3518,PAYLOAD,2024-03-25 20:38:37,15.08846721,0.0001348,53.2158,283.626,90.805,269.3096,0.00031777,4.774e-05,0.0,0 STARLINK-3518,1 51732U 22016U   24085.86015534  .00004774  00000-0  31777-3 0  9990,2 51732  53.2158 283.6260 0001348  90.8050 269.3096 15.08846721116947,6917.86,95.437,540.657,538.792,0.0
51732.0,STARLINK-3518,PAYLOAD,2024-03-26 06:10:56,15.08842665,0.0001011,53.2152,281.8387,92.7471,267.3637,0.00016536,2.345e-05,0.0,0 STARLINK-3518,1 51732U 22016U   24086.25759558  .00002345  00000-0  16536-3 0  9993,2 51732  53.2152 281.8387 0001011  92.7471 267.3637 15.08842665117006,6917.872,95.437,540.437,539.038,0.0
51732.0,STARLINK-3518,PAYLOAD,2024-03-26 20:29:25,15.08831947,0.0001225,53.2155,279.1652,91.0595,269.0538,-3.4264e-05,-8.33e-06,0.0,0 STARLINK-3518,1 51732U 22016U   24086.85376485 -.00000833  00000-0 -34264-4 0  9994,2 51732  53.2155 279.1652 0001225  91.0595 269.0538 15.08831947117099,6917.905,95.438,540.617,538.923,0.0
51732.0,STARLINK-3518,PAYLOAD,2024-03-27 12:23:16,15.08832091,0.0001068,53.2161,276.1891,96.6249,263.4865,0.00019357,2.794e-05,0.0,0 STARLINK-3518,1 51732U 22016U   24087.51616766  .00002794  00000-0  19357-3 0  9998,2 51732  53.2161 276.1891 0001068  96.6249 263.4865 15.08832091117193,6917.905,95.438,540.508,539.031,0.0
51732.0,STARLINK-3518,PAYLOAD,2024-03-27 18:44:49,15.08843285,0.0001185,53.2152,275.0007,92.9542,267.1586,0.00025234,3.731e-05,0.0,0 STARLINK-3518,1 51732U 22016U   24087.78112314  .00003731  00000-0  25234-3 0  9990,2 51732  53.2152 275.0007 0001185  92.9542 267.1586 15.08843285117238,6917.87,95.437,540.555,538.916,0.0
51732.0,STARLINK-3518,PAYLOAD,2024-03-28 12:14:03,15.0884177,0.0001271,53.216,271.7301,98.4863,261.6273,0.00029307,4.38e-05,0.0,0 STARLINK-3518,1 51732U 22016U   24088.50976520  .00004380  00000-0  29307-3 0  9994,2 51732  53.2160 271.7301 0001271  98.4863 261.6273 15.08841770117341,6917.875,95.437,540.619,538.861,0.0
51732.0,STARLINK-3518,PAYLOAD,2024-03-28 21:46:22,15.08849427,0.0001525,53.215,269.9461,90.2756,269.8411,0.00028275,4.216e-05,0.0,0 STARLINK-3518,1 51732U 22016U   24088.90720170  .00004216  00000-0  28275-3 0  9997,2 51732  53.2150 269.9461 0001525  90.2756 269.8411 15.08849427117407,6917.852,95.437,540.772,538.662,0.0
51732.0,STARLINK-3518,PAYLOAD,2024-03-29 21:37:09,15.08843203,0.0001671,53.2149,265.4843,93.0424,267.076,3.0982e-05,2.05e-06,0.0,0 STARLINK-3518,1 51732U 22016U   24089.90080202  .00000205  00000-0  30982-4 0  9996,2 51732  53.2149 265.4843 0001671  93.0424 267.0760 15.08843203117554,6917.871,95.437,540.892,538.58,0.0
51732.0,STARLINK-3518,PAYLOAD,2024-03-30 11:55:37,15.08840671,0.000169,53.2112,262.8066,94.135,265.9836,3.4476e-05,2.61e-06,0.0,0 STARLINK-3518,1 51732U 22016U   24090.49696428  .00000261  00000-0  34476-4 0  9999,2 51732  53.2112 262.8066 0001690  94.1350 265.9836 15.08840671117640,6917.878,95.438,540.912,538.574,0.0
51732.0,STARLINK-3518,PAYLOAD,2024-03-30 18:17:10,15.08839387,0.0001668,53.2103,261.6188,85.0637,275.0546,1.2894e-05,-8.3e-07,0.0,0 STARLINK-3518,1 51732U 22016U   24090.76192444 -.00000083  00000-0  12894-4 0  9991,2 51732  53.2103 261.6188 0001668  85.0637 275.0546 15.08839387117680,6917.882,95.438,540.901,538.593,0.0
51732.0,STARLINK-3518,PAYLOAD,2024-03-31 03:49:29,15.08838375,0.0001864,53.2135,259.8357,87.4852,272.6353,6.7287e-05,7.83e-06,0.0,0 STARLINK-3518,1 51732U 22016U   24091.15936741  .00000783  00000-0  67287-4 0  9993,2 51732  53.2135 259.8357 0001864  87.4852 272.6353 15.08838375117747,6917.885,95.438,541.04,538.461,0.0
51732.0,STARLINK-3518,PAYLOAD,2024-03-31 11:46:24,15.08836819,0.0001432,53.2151,258.3489,82.751,277.3645,0.00015411,2.165e-05,0.0,0 STARLINK-3518,1 51732U 22016U   24091.49056319  .00002165  00000-0  15411-3 0  9991,2 51732  53.2151 258.3489 0001432  82.7510 277.3645 15.08836819117797,6917.89,95.438,540.746,538.764,0.0
51732.0,STARLINK-3518,PAYLOAD,2024-03-31 18:07:56,15.08845284,0.0001386,53.2164,257.1595,77.1794,282.9353,0.00021221,3.091e-05,0.0,0 STARLINK-3518,1 51732U 22016U   24091.75551720  .00003091  00000-0  21221-3 0  9991,2 51732  53.2164 257.1595 0001386  77.1794 282.9353 15.08845284117835,6917.864,95.437,540.688,538.77,0.0
51732.0,STARLINK-3518,PAYLOAD,2024-04-01 03:40:15,15.08839268,0.0001168,53.2142,255.3758,75.9684,284.1438,0.00015191,2.131e-05,0.0,0 STARLINK-3518,1 51732U 22016U   24092.15296250  .00002131  00000-0  15191-3 0  9993,2 51732  53.2142 255.3758 0001168  75.9684 284.1438 15.08839268117893,6917.883,95.438,540.556,538.94,0.0
51732.0,STARLINK-3518,PAYLOAD,2024-04-01 11:37:12,15.08836271,0.0001255,53.2171,253.8905,83.4866,276.6269,7.9003e-05,9.7e-06,0.0,0 STARLINK-3518,1 51732U 22016U   24092.48416760  .00000970  00000-0  79003-4 0  9991,2 51732  53.2171 253.8905 0001255  83.4866 276.6269 15.08836271117940,6917.892,95.438,540.625,538.889,0.0
51732.0,STARLINK-3518,PAYLOAD,2024-04-01 21:09:29,15.08859244,0.0001261,53.2161,252.104,80.1891,279.9243,0.00029489,4.411e-05,0.0,0 STARLINK-3518,1 51732U 22016U   24092.88159067  .00004411  00000-0  29489-3 0  9995,2 51732  53.2161 252.1040 0001261  80.1891 279.9243 15.08859244118001,6917.822,95.436,540.559,538.814,0.0
51732.0,STARLINK-3518,PAYLOAD,2024-04-02 03:31:02,15.08841829,0.0001254,53.2172,250.9154,85.6341,274.4794,1.8231e-05,2e-08,0.0,0 STARLINK-3518,1 51732U 22016U   24093.14655901  .00000002  00000-0  18231-4 0  9999,2 51732  53.2172 250.9154 0001254  85.6341 274.4794 15.08841829118042,6917.875,95.437,540.607,538.872,0.0
51732.0,STARLINK-3518,PAYLOAD,2024-04-02 19:24:54,15.0883934,0.0001213,53.2184,247.9419,82.0116,278.1014,-3.5724e-05,-8.56e-06,0.0,0 STARLINK-3518,1 51732U 22016U   24093.80896667 -.00000856  00000-0 -35724-4 0  9993,2 51732  53.2184 247.9419 0001213  82.0116 278.1014 15.08839340118143,6917.882,95.438,540.587,538.908,0.0
51732.0,STARLINK-3518,PAYLOAD,2024-04-03 17:40:18,15.08848746,0.0001161,53.2182,243.7792,86.4702,273.6423,9.0051e-06,-1.44e-06,0.0,0 STARLINK-3518,1 51732U 22016U   24094.73632004 -.00000144  00000-0  90051-5 0  9993,2 51732  53.2182 243.7792 0001161  86.4702 273.6423 15.08848746118289,6917.854,95.437,540.522,538.915,0.0
51732.0,STARLINK-3518,PAYLOAD,2024-04-04 03:12:37,15.08842109,0.0001039,53.2161,241.9928,79.4901,280.6208,-5.6487e-05,-1.187e-05,0.0,0 STARLINK-3518,1 51732U 22016U   24095.13376413 -.00001187  00000-0 -56487-4 0  9990,2 51732  53.2161 241.9928 0001039  79.4901 280.6208 15.08842109118347,6917.874,95.437,540.458,539.02,0.0
51732.0,STARLINK-3518,PAYLOAD,2024-04-04 09:34:10,15.08830982,0.0001135,53.2166,240.8036,89.3162,270.796,7.5665e-05,9.16e-06,0.0,0 STARLINK-3518,1 51732U 22016U   24095.39872930  .00000916  00000-0  75665-4 0  9999,2 51732  53.2166 240.8036 0001135  89.3162 270.7960 15.08830982118381,6917.908,95.438,540.558,538.988,0.0
51732.0,STARLINK-3518,PAYLOAD,2024-04-04 14:20:19,15.08829694,0.0001083,53.2152,239.9114,89.5104,270.6012,7.2945e-05,8.73e-06,0.0,0 STARLINK-3518,1 51732U 22016U   24095.59745008  .00000873  00000-0  72945-4 0  9996,2 51732  53.2152 239.9114 0001083  89.5104 270.6012 15.08829694118411,6917.912,95.438,540.526,539.028,0.0
51732.0,STARLINK-3518,PAYLOAD,2024-04-04 15:55:43,15.08829082,0.0001068,53.215,239.6145,87.7296,272.3819,6.73e-05,7.83e-06,0.0,0 STARLINK-3518,1 51732U 22016U   24095.66369219  .00000783  00000-0  67300-4 0  9999,2 51732  53.2150 239.6145 0001068  87.7296 272.3819 15.08829082118421,6917.914,95.438,540.518,539.04,0.0
